COSMOS 1975             
1 19573U 88093A   26115.86368074  .00007284  00000+0  25986-3 0  9993
2 19573  82.5186  70.2958 0011761  15.0205 345.1382 15.28646575 26617
SL-14 R/B               
1 19574U 88093B   26115.74044402  .00000310  00000+0  32817-4 0  9992
2 19574  82.5331 357.8873 0019273 240.5197 180.6467 14.85703075  8001
SL-16 R/B               
1 19650U 88102B   26115.80637639 -.00000085  00000+0 -18733-4 0  9997
2 19650  71.0002  52.3545 0016260 294.8769  65.0664 14.16157281933566
INTERCOSMOS 24          
1 20261U 89080A   26115.82870198  .00000350  00000+0  98190-4 0  9992
2 20261  82.6040  73.7038 1187523 183.3519 175.9073 12.59601467672736
SL-14 R/B               
1 20262U 89080C   26115.76366052  .00000301  00000+0  81081-4 0  9992
2 20262  82.5908 142.9770 1230991  77.2106 296.3420 12.50528987666038
DELTA 1 R/B             
1 20323U 89089B   26115.79942884  .00000210  00000+0  60878-4 0  9995
2 20323  97.0667 315.7315 0068329 334.8903  24.8978 14.50696893902561
ARIANE 40 R/B           
1 20443U 90005H   26115.71951098  .00000189  00000+0  73466-4 0  9999
2 20443  98.2998 174.9578 0011231  67.2952 292.9422 14.39898814899573
DELTA 2 R/B(1)          
1 20453U 90008B   26115.56726990  .00057878  00000+0  55560-3 0  9998
2 20453  35.6012 225.7550 0074258 338.5337  21.2294 15.61918580933455
COSMOS 2058             
1 20465U 90010A   26115.78237773  .00002637  00000+0  15309-3 0  9994
2 20465  82.4695   1.0295 0009761 160.7045 199.4557 15.11697270949355
SL-14 R/B               
1 20466U 90010B   26115.76399797  .00000381  00000+0  43170-4 0  9990
2 20466  82.5042 223.1688 0020795 141.5379 218.7323 14.83611833935465
SL-14 R/B               
1 20511U 90018B   26115.69190348  .00000267  00000+0  30547-4 0  9999
2 20511  82.5231 179.1725 0014859 299.7020  60.2715 14.82184366929543
HST                     
1 20580U 90037B   26115.58527906  .00006480  00000+0  20815-3 0  9997
2 20580  28.4745  79.9164 0001645 280.6914  79.3497 15.30144545780500
SL-16 R/B               
1 20625U 90046B   26115.63648262  .00000071  00000+0  61062-4 0  9992
2 20625  70.9991 199.3140 0016081 237.3411 122.6161 14.15015186855038
